ARIANE 40 R/B           
1 20443U 90005H   26020.16922854  .00000365  00000+0  12980-3 0  9990
2 20443  98.3183  82.2511 0009886 357.3937   2.7199 14.39829594885827
DELTA 2 R/B(1)          
1 20453U 90008B   26019.69569724  .00054471  00000+0  78340-3 0  9992
2 20453  35.6055 134.7392 0101540 165.4275 194.9421 15.49067605918517
COSMOS 2058             
1 20465U 90010A   26020.24197563  .00005816  00000+0  34766-3 0  9992
2 20465  82.4670  95.1535 0010928 135.0092 225.2025 15.10849490934920
SL-14 R/B               
1 20466U 90010B   26020.25953060  .00000682  00000+0  79652-4 0  9996
2 20466  82.5046 312.8736 0021366  98.6620 261.7016 14.83514978921302
SL-14 R/B               
1 20511U 90018B   26020.09558812  .00000529  00000+0  63511-4 0  9990
2 20511  82.5207 268.5187 0014945 250.6170 109.3429 14.82090162915383
HST                     
1 20580U 90037B   26020.25343543  .00011715  00000+0  40065-3 0  9995
2 20580  28.4679  10.2230 0001632 293.2847  66.7576 15.28617704765891
SL-16 R/B               
1 20625U 90046B   26020.34392264 -.00000119  00000+0 -37040-4 0  9997
2 20625  70.9995  39.4471 0013771   7.4002 352.7321 14.15007830841551
COSMOS 2084             
1 20663U 90055A   26020.30053318  .00004578  00000+0  33027-3 0  9990
2 20663  62.7906 140.5764 0025143 180.6015 179.5060 15.05291322929033
SL-6 R/B(2)             
1 20666U 90055D   26020.28443443  .00002590  00000+0  20405-3 0  9990
2 20666  62.7823  58.4254 0017717 331.0624  28.9491 15.03289381930915
SL-8 R/B                
1 20775U 90078B   26020.23248168  .00026585  00000+0  80107-3 0  9993
2 20775  82.9060 294.8263 0368660 176.3589 184.0461 14.87262711802092
SL-8 R/B                
1 21088U 91006B   26020.27085409 -.00000038  00000+0 -53901-4 0  9994
2 21088  82.9409 206.0501 0022673 167.9532   5.0434 13.77491537757406
OKEAN-3                 
1 21397U 91039A   26020.26385924  .00004425  00000+0  31435-3 0  9996
2 21397  82.5149  23.7442 0015886 129.8915 230.3711 15.04378514857755
COSMOS 2151             
1 21422U 91042A   26020.31983843  .00003906  00000+0  31277-3 0  9996
2 21422  82.4989 130.3232 0011765 218.0393 142.0001 14.99875126855944
SL-14 R/B               
1 21423U 91042B   26020.13846335  .00000515  00000+0  62215-4 0  9991
2 21423  82.4922 265.7198 0018128  44.2721 315.9939 14.81778457845883
ERS-1                   
1 21574U 91050A   26020.31711399  .00000527  00000+0  18332-3 0  9991
2 21574  98.7896  37.3364 0031698 347.7100  12.3310 14.39401198808773
ARIANE 40 R/B           
1 21610U 91050F   26020.13629248  .00000408  00000+0  13489-3 0  9999
2 21610  98.2109  74.1715 0002622 201.0073 159.1011 14.42848117811997
INTERCOSMOS 25          
1 21819U 91086A   26020.27480689  .00000757  00000+0  14890-3 0  9992
2 21819  82.6088 339.2673 1486069 221.2706 126.6264 12.11863078490829
SL-8 R/B                
1 21876U 92008B   26020.30307804  .00000094  00000+0  81862-4 0  9999
2 21876  82.9290 303.7677 0033334 270.1863 204.5104 13.75966908702764
SL-8 R/B                
1 21938U 92020B   26020.19757792  .00000210  00000+0  20158-3 0  9994
2 21938  82.9300 189.7581 0030166  73.9738  98.8010 13.75539767694467
USA 81                  
1 21949U 92023A   26020.31693073  .00000299  00000+0  10346-3 0  9999
2 21949  85.0108 159.3299 0001907 116.6096 243.5292 14.32344770 87864
COSMOS 2219             
1 22219U 92076A   26020.27731024 -.00000080  00000+0 -16997-4 0  9991
2 22219  71.0616 119.2763 0020855 274.1759  85.6980 14.14081286711531
SL-16 R/B               
1 22220U 92076B   26020.21421507 -.00000067  00000+0 -95162-5 0  9996
2 22220  71.0009 290.4872 0012647 180.0352 342.0955 14.16850586714967
COSMOS 2221             
1 22236U 92080A   26020.28140803  .00003405  00000+0  30116-3 0  9995
2 22236  82.5066 325.4319 0014673   2.5986 357.5309 14.95954623773559
SL-16 R/B               
1 22285U 92093B   26020.33035007  .00000297  00000+0  17649-3 0  9990
2 22285  71.0223 105.7884 0004092 348.9671  11.1361 14.15440787706313
COSMOS 2228             
1 22286U 92094A   26020.26252788  .00004165  00000+0  35910-3 0  9990
2 22286  82.5188 283.6757 0019576 102.9973 257.3437 14.96935338768813
SL-16 R/B               
1 22566U 93016B   26020.22458021  .00000170  00000+0  11184-3 0  9999
2 22566  71.0088 316.9744 0008985  25.7670 334.3899 14.15294145695317
COSMOS 2242             
1 22626U 93024A   26020.29113463  .00003746  00000+0  32821-3 0  9993
2 22626  82.5218 312.9962 0017957 105.7792 254.5412 14.96299476773151
SL-16 R/B               
1 22803U 93059B   26020.26980014  .00000082  00000+0  64494-4 0  9991
2 22803  70.9909 113.2382 0019525 282.3725  77.5214 14.17223326672677
ARIANE 40 R/B           
1 22830U 93061H   26020.16594717  .00000291  00000+0  12237-3 0  9993
2 22830  98.5015  89.9865 0011687  70.7587 289.4861 14.32828536687154
COSMOS 2278             
1 23087U 94023A   26020.15166745  .00000045  00000+0  47935-4 0  9993
2 23087  71.0543 276.6479 0006423 107.0378 253.1449 14.14365792637943
SL-16 R/B               
1 23088U 94023B   26020.14946928  .00000005  00000+0  27339-4 0  9994
2 23088  70.9999 172.8244 0003775 331.9746  28.1173 14.15006726639225
SL-16 R/B               
1 23343U 94074B   26020.08556773  .00000633  00000+0  91633-4 0  9997
2 23343  97.7166  52.8595 0007223  30.7539 342.8287 14.79339278680065
SL-16 R/B               
1 23405U 94077B   26020.29136595  .00000106  00000+0  78454-4 0  9999
2 23405  70.9833  94.3124 0004840 254.2265 105.8325 14.15557808609385
ARIANE 40+ R/B          
1 23561U 95021B   26020.16320204  .00000413  00000+0  14590-3 0  9991
2 23561  98.4593  92.2793 0005684 289.7793 100.0128 14.39728427612263
SL-16 R/B               
1 23705U 95058B   26020.15461256 -.00000176  00000+0 -65581-4 0  9998
2 23705  71.0219 282.1543 0013402 204.1163 155.9335 14.15489456560987
SL-16 R/B               
1 24298U 96051B   26020.15746455  .00000059  00000+0  58417-4 0  9995
2 24298  70.7588 277.9665 0018761 213.9445 146.0475 14.12401721514791
ORBVIEW 2 (SEASTAR)     
1 24883U 97037A   26019.97426650  .00000383  00000+0  14962-3 0  9996
2 24883  98.8486 183.0183 0002088 178.4131 181.7061 14.35449112501483
SL-16 R/B               
1 25400U 98043G   26020.31864265  .00000099  00000+0  60158-4 0  9991
2 25400  98.8180 333.3633 0010310 149.4055 210.7727 14.26035848432099
SL-16 R/B               
1 25407U 98045B   26020.18943624  .00000357  00000+0  20447-3 0  9995
2 25407  71.0116 283.5694 0005244 104.2557 255.9149 14.16183249420237
ISS (ZARYA)             
1 25544U 98067A   26020.17509289  .00021194  00000+0  38548-3 0  9998
2 25544  51.6334 312.1983 0007785  38.3265 321.8276 15.49442598548811
CZ-4B R/B               
1 25732U 99025C   26020.12837563  .00000072  00000+0  55202-4 0  9995
2 25732  98.6714  65.5397 0037996 123.8517 299.3717 14.18253451381286
OKEAN-O                 
1 25860U 99039A   26020.11853765  .00001036  00000+0  14307-3 0  9994
2 25860  97.9543  80.4785 0001771 103.3711 256.7698 14.80237062427205
SL-16 R/B               
1 25861U 99039B   26020.14442026  .00000786  00000+0  10665-3 0  9996
2 25861  98.0066  79.2879 0015898  57.8221 302.4531 14.81648714429671
DELTA 2 R/B             
1 25876U 99041E   26020.30165815  .00003245  00000+0  55903-3 0  9998
2 25876  51.7630 134.4977 0503326 205.4652 152.0685 14.11582304356190
HELIOS 1B               
1 25977U 99064A   26020.28398193  .00002872  00000+0  32349-3 0  9993
2 25977  98.1743 281.0951 0000945 135.7666 224.3625 14.87461589678066
TERRA                   
1 25994U 99068A   26020.29459723  .00000704  00000+0  15281-3 0  9992
2 25994  97.9690  75.5537 0001989   9.4854  52.9255 14.60951226388014
SL-16 R/B               
1 26070U 00006B   26020.19220458 -.00000099  00000+0 -25782-4 0  9999
2 26070  71.0003 199.8074 0018822 256.9747 102.9275 14.15812302341693
TITAN 4B R/B            
1 26474U 00047B   26020.25495333  .00006739  00000+0  42550-3 0  9991
2 26474  67.9886 176.6595 0036824  96.3929 264.1415 15.09094292385605
ENVISAT                 
1 27386U 02009A   26020.30030931  .00000195  00000+0  76906-4 0  9992
2 27386  98.3654 335.0745 0001167  92.5527  34.8366 14.39015435252212
IDEFIX & ARIANE 42P R/B 
1 27422U 02021B   26020.32042561  .00000443  00000+0  18518-3 0  9991
2 27422  98.5826 319.5196 0011431 335.3327  24.7308 14.30983311237107
AQUA                    
1 27424U 02022A   26020.30984080  .00001497  00000+0  30942-3 0  9998
2 27424  98.4092 346.8266 0001984  71.7888  69.0903 14.61835321261661
CZ-4B R/B               
1 27432U 02024C   26020.12376723  .00000082  00000+0  64856-4 0  9999
2 27432  98.8938  73.7507 0050526 159.9898 255.0411 14.14536727222375
MIDORI II (ADEOS-II)    
1 27597U 02056A   26020.28973490  .00000466  00000+0  20122-3 0  9990
2 27597  98.7692 338.4598 0001859 111.0348 249.1032 14.29239793203380
H-2A R/B                
1 27601U 02056E   26019.92708249  .00000454  00000+0  17399-3 0  9992
2 27601  98.3117 342.1757 0069382 307.6268 121.0118 14.33715620207124
CZ-4B R/B               
1 28059U 03049C   26020.24535452  .00000693  00000+0  17029-3 0  9999
2 28059  98.6822  13.2718 0048658  20.8547 339.4620 14.54955125179555
CZ-2C R/B               
1 28222U 04012C   26020.16810093  .00059658  00000+0  76340-3 0  9996
2 28222  97.7350  81.0479 0017136 127.8227 232.4583 15.58848036196703
SL-16 R/B               
1 28353U 04021B   26020.30163787 -.00000123  00000+0 -39292-4 0  9999
2 28353  71.0029 334.0393 0002755 132.8072 227.3282 14.14592422115994
CZ-4B R/B               
1 28415U 04035C   26020.33684283  .00013392  00000+0  48306-3 0  9990
2 28415  97.3562  55.1757 0033921 138.0800 222.3046 15.28087028172529
CZ-2C R/B               
1 28480U 04046B   26020.31389493  .00000287  00000+0  12244-3 0  9998
2 28480  98.2002 298.2994 0138452 298.2355  60.4907 14.26968626101609
